[{"OBJECT_NAME":"TIME FLIES","OBJECT_ID":"2025-135AN","EPOCH":"2026-03-09T21:41:19.799232","MEAN_MOTION":14.94183091,"ECCENTRICITY":0.00014084,"INCLINATION":97.7573,"RA_OF_ASC_NODE":184.4121,"ARG_OF_PERICENTER":214.5319,"MEAN_ANOMALY":145.581,"EPHEMERIS_TYPE":0,"CLASSIFICATION_TYPE":"U","NORAD_CAT_ID":64564,"ELEMENT_SET_NO":999,"REV_AT_EPOCH":3907,"BSTAR":0.00043258221,"MEAN_MOTION_DOT":4.577e-5,"MEAN_MOTION_DDOT":0},{"OBJECT_NAME":"NOAA 8 DEB","OBJECT_ID":"1983-022M","EPOCH":"2026-03-08T08:54:45.154080","MEAN_MOTION":14.91693754,"ECCENTRICITY":0.00059784,"INCLINATION":98.3477,"RA_OF_ASC_NODE":120.4837,"ARG_OF_PERICENTER":112.6595,"MEAN_ANOMALY":307.1333,"EPHEMERIS_TYPE":0,"CLASSIFICATION_TYPE":"U","NORAD_CAT_ID":38840,"ELEMENT_SET_NO":999,"REV_AT_EPOCH":76176,"BSTAR":0.0050945792,"MEAN_MOTION_DOT":0.00051562,"MEAN_MOTION_DDOT":0}]
